CCSDS_OMM_VERS = 2.0
CREATION_DATE  = 
ORIGINATOR     = 

OBJECT_NAME    = STARLINK-36573
OBJECT_ID      = 2026-014H
CENTER_NAME    = EARTH
REF_FRAME      = TEME
TIME_SYSTEM    = UTC
MEAN_ELEMENT_THEORY = SGP/SGP4

EPOCH          = 2026-02-08T14:43:58.730016
MEAN_MOTION    = 15.80873582
ECCENTRICITY   = .00013451
INCLINATION    = 97.2845
RA_OF_ASC_NODE = 283.0707
ARG_OF_PERICENTER = 81.4536
MEAN_ANOMALY   = 278.6885

EPHEMERIS_TYPE = 0
CLASSIFICATION_TYPE = U
NORAD_CAT_ID   = 67539
ELEMENT_SET_NO = 999
REV_AT_EPOCH   = 399
BSTAR          = .918093E-3
MEAN_MOTION_DOT = .179861E-2
MEAN_MOTION_DDOT = 0

CCSDS_OMM_VERS = 2.0
CREATION_DATE  = 
ORIGINATOR     = 

OBJECT_NAME    = STARLINK-36585
OBJECT_ID      = 2026-014J
CENTER_NAME    = EARTH
REF_FRAME      = TEME
TIME_SYSTEM    = UTC
MEAN_ELEMENT_THEORY = SGP/SGP4

EPOCH          = 2026-02-08T14:00:01.999872
MEAN_MOTION    = 15.75176918
ECCENTRICITY   = .0001456
INCLINATION    = 97.2821
RA_OF_ASC_NODE = 283.0244
ARG_OF_PERICENTER = 107.8050
MEAN_ANOMALY   = 50.7315

EPHEMERIS_TYPE = 0
CLASSIFICATION_TYPE = U
NORAD_CAT_ID   = 67540
ELEMENT_SET_NO = 999
REV_AT_EPOCH   = 401
BSTAR          = -.3707372E-4
MEAN_MOTION_DOT = -.5653E-4
MEAN_MOTION_DDOT = 0

CCSDS_OMM_VERS = 2.0
CREATION_DATE  = 
ORIGINATOR     = 

OBJECT_NAME    = STARLINK-36579
OBJECT_ID      = 2026-014K
CENTER_NAME    = EARTH
REF_FRAME      = TEME
TIME_SYSTEM    = UTC
MEAN_ELEMENT_THEORY = SGP/SGP4

EPOCH          = 2026-02-08T14:40:59.367072
MEAN_MOTION    = 15.80524096
ECCENTRICITY   = .0001086
INCLINATION    = 97.2841
RA_OF_ASC_NODE = 283.0741
ARG_OF_PERICENTER = 130.7742
MEAN_ANOMALY   = 229.3620

EPHEMERIS_TYPE = 0
CLASSIFICATION_TYPE = U
NORAD_CAT_ID   = 67541
ELEMENT_SET_NO = 999
REV_AT_EPOCH   = 399
BSTAR          = .19358033E-2
MEAN_MOTION_DOT = .382283E-2
MEAN_MOTION_DDOT = 0

CCSDS_OMM_VERS = 2.0
CREATION_DATE  = 
ORIGINATOR     = 

OBJECT_NAME    = STARLINK-35934
OBJECT_ID      = 2026-014L
CENTER_NAME    = EARTH
REF_FRAME      = TEME
TIME_SYSTEM    = UTC
MEAN_ELEMENT_THEORY = SGP/SGP4

EPOCH          = 2026-02-08T14:38:44.708352
MEAN_MOTION    = 15.80910478
ECCENTRICITY   = .00014652
INCLINATION    = 97.2848
RA_OF_ASC_NODE = 283.0757
ARG_OF_PERICENTER = 58.6108
MEAN_ANOMALY   = 301.5303

EPHEMERIS_TYPE = 0
CLASSIFICATION_TYPE = U
NORAD_CAT_ID   = 67542
ELEMENT_SET_NO = 999
REV_AT_EPOCH   = 398
BSTAR          = .14502098E-2
MEAN_MOTION_DOT = .28826E-2
MEAN_MOTION_DDOT = 0

CCSDS_OMM_VERS = 2.0
CREATION_DATE  = 
ORIGINATOR     = 

OBJECT_NAME    = STARLINK-36581
OBJECT_ID      = 2026-014M
CENTER_NAME    = EARTH
REF_FRAME      = TEME
TIME_SYSTEM    = UTC
MEAN_ELEMENT_THEORY = SGP/SGP4

EPOCH          = 2026-02-08T14:37:00.833088
MEAN_MOTION    = 15.80842019
ECCENTRICITY   = .00029155
INCLINATION    = 97.2822
RA_OF_ASC_NODE = 283.0769
ARG_OF_PERICENTER = 112.7571
MEAN_ANOMALY   = 247.4006

EPHEMERIS_TYPE = 0
CLASSIFICATION_TYPE = U
NORAD_CAT_ID   = 67543
ELEMENT_SET_NO = 999
REV_AT_EPOCH   = 399
BSTAR          = .92048733E-4
MEAN_MOTION_DOT = .1755E-3
MEAN_MOTION_DDOT = 0

CCSDS_OMM_VERS = 2.0
CREATION_DATE  = 
ORIGINATOR     = 

OBJECT_NAME    = STARLINK-36565
OBJECT_ID      = 2026-014N
CENTER_NAME    = EARTH
REF_FRAME      = TEME
TIME_SYSTEM    = UTC
MEAN_ELEMENT_THEORY = SGP/SGP4

EPOCH          = 2026-02-08T14:35:30.888960
MEAN_MOTION    = 15.80868887
ECCENTRICITY   = .0001589
INCLINATION    = 97.2851
RA_OF_ASC_NODE = 283.0787
ARG_OF_PERICENTER = 80.9893
MEAN_ANOMALY   = 279.1555

EPHEMERIS_TYPE = 0
CLASSIFICATION_TYPE = U
NORAD_CAT_ID   = 67544
ELEMENT_SET_NO = 999
REV_AT_EPOCH   = 399
BSTAR          = .81905865E-3
MEAN_MOTION_DOT = .160045E-2
MEAN_MOTION_DDOT = 0

CCSDS_OMM_VERS = 2.0
CREATION_DATE  = 
ORIGINATOR     = 

OBJECT_NAME    = STARLINK-36583
OBJECT_ID      = 2026-014P
CENTER_NAME    = EARTH
REF_FRAME      = TEME
TIME_SYSTEM    = UTC
MEAN_ELEMENT_THEORY = SGP/SGP4

EPOCH          = 2026-02-08T14:00:01.999872
MEAN_MOTION    = 15.75192682
ECCENTRICITY   = .00012762
INCLINATION    = 97.2847
RA_OF_ASC_NODE = 283.0361
ARG_OF_PERICENTER = 79.2772
MEAN_ANOMALY   = 101.2584

EPHEMERIS_TYPE = 0
CLASSIFICATION_TYPE = U
NORAD_CAT_ID   = 67545
ELEMENT_SET_NO = 999
REV_AT_EPOCH   = 401
BSTAR          = -.11737569E-3
MEAN_MOTION_DOT = -.17603E-3
MEAN_MOTION_DDOT = 0

CCSDS_OMM_VERS = 2.0
CREATION_DATE  = 
ORIGINATOR     = 

OBJECT_NAME    = STARLINK-36580
OBJECT_ID      = 2026-014Q
CENTER_NAME    = EARTH
REF_FRAME      = TEME
TIME_SYSTEM    = UTC
MEAN_ELEMENT_THEORY = SGP/SGP4

EPOCH          = 2026-02-08T02:22:44.854464
MEAN_MOTION    = 15.80937635
ECCENTRICITY   = .00013355
INCLINATION    = 97.2779
RA_OF_ASC_NODE = 282.5415
ARG_OF_PERICENTER = 33.0263
MEAN_ANOMALY   = 327.1088

EPHEMERIS_TYPE = 0
CLASSIFICATION_TYPE = U
NORAD_CAT_ID   = 67546
ELEMENT_SET_NO = 999
REV_AT_EPOCH   = 391
BSTAR          = .17113076E-2
MEAN_MOTION_DOT = .342766E-2
MEAN_MOTION_DDOT = 0

CCSDS_OMM_VERS = 2.0
CREATION_DATE  = 
ORIGINATOR     = 

OBJECT_NAME    = STARLINK-36584
OBJECT_ID      = 2026-014R
CENTER_NAME    = EARTH
REF_FRAME      = TEME
TIME_SYSTEM    = UTC
MEAN_ELEMENT_THEORY = SGP/SGP4

EPOCH          = 2026-02-08T14:30:36.147456
MEAN_MOTION    = 15.80855822
ECCENTRICITY   = .0001611
INCLINATION    = 97.2766
RA_OF_ASC_NODE = 283.0780
ARG_OF_PERICENTER = 99.5909
MEAN_ANOMALY   = 260.5542

EPHEMERIS_TYPE = 0
CLASSIFICATION_TYPE = U
NORAD_CAT_ID   = 67547
ELEMENT_SET_NO = 999
REV_AT_EPOCH   = 399
BSTAR          = .59553494E-3
MEAN_MOTION_DOT = .115667E-2
MEAN_MOTION_DDOT = 0

CCSDS_OMM_VERS = 2.0
CREATION_DATE  = 
ORIGINATOR     = 

OBJECT_NAME    = STARLINK-36586
OBJECT_ID      = 2026-014S
CENTER_NAME    = EARTH
REF_FRAME      = TEME
TIME_SYSTEM    = UTC
MEAN_ELEMENT_THEORY = SGP/SGP4

EPOCH          = 2026-02-08T14:28:38.065440
MEAN_MOTION    = 15.80879171
ECCENTRICITY   = .00016015
INCLINATION    = 97.2854
RA_OF_ASC_NODE = 283.0851
ARG_OF_PERICENTER = 78.5873
MEAN_ANOMALY   = 281.5575

EPHEMERIS_TYPE = 0
CLASSIFICATION_TYPE = U
NORAD_CAT_ID   = 67548
ELEMENT_SET_NO = 999
REV_AT_EPOCH   = 399
BSTAR          = .96056182E-3
MEAN_MOTION_DOT = .188423E-2
MEAN_MOTION_DDOT = 0

CCSDS_OMM_VERS = 2.0
CREATION_DATE  = 
ORIGINATOR     = 

OBJECT_NAME    = STARLINK-36564
OBJECT_ID      = 2026-014T
CENTER_NAME    = EARTH
REF_FRAME      = TEME
TIME_SYSTEM    = UTC
MEAN_ELEMENT_THEORY = SGP/SGP4

EPOCH          = 2026-02-08T14:00:01.999872
MEAN_MOTION    = 15.75172427
ECCENTRICITY   = .00016046
INCLINATION    = 97.2855
RA_OF_ASC_NODE = 283.0613
ARG_OF_PERICENTER = 93.2160
MEAN_ANOMALY   = 143.3251

EPHEMERIS_TYPE = 0
CLASSIFICATION_TYPE = U
NORAD_CAT_ID   = 67549
ELEMENT_SET_NO = 999
REV_AT_EPOCH   = 395
BSTAR          = .2656293E-3
MEAN_MOTION_DOT = .39645E-3
MEAN_MOTION_DDOT = 0

CCSDS_OMM_VERS = 2.0
CREATION_DATE  = 
ORIGINATOR     = 

OBJECT_NAME    = STARLINK-36563
OBJECT_ID      = 2026-014U
CENTER_NAME    = EARTH
REF_FRAME      = TEME
TIME_SYSTEM    = UTC
MEAN_ELEMENT_THEORY = SGP/SGP4

EPOCH          = 2026-02-08T14:00:01.999872
MEAN_MOTION    = 15.77942200
ECCENTRICITY   = .00020454
INCLINATION    = 97.2855
RA_OF_ASC_NODE = 283.0662
ARG_OF_PERICENTER = 95.0515
MEAN_ANOMALY   = 162.1997

EPHEMERIS_TYPE = 0
CLASSIFICATION_TYPE = U
NORAD_CAT_ID   = 67550
ELEMENT_SET_NO = 999
REV_AT_EPOCH   = 401
BSTAR          = -.12641285E-1
MEAN_MOTION_DOT = -.1862466E-1
MEAN_MOTION_DDOT = 0

CCSDS_OMM_VERS = 2.0
CREATION_DATE  = 
ORIGINATOR     = 

OBJECT_NAME    = STARLINK-36566
OBJECT_ID      = 2026-014V
CENTER_NAME    = EARTH
REF_FRAME      = TEME
TIME_SYSTEM    = UTC
MEAN_ELEMENT_THEORY = SGP/SGP4

EPOCH          = 2026-02-08T14:23:56.899104
MEAN_MOTION    = 15.79650754
ECCENTRICITY   = .00016674
INCLINATION    = 97.2844
RA_OF_ASC_NODE = 283.0875
ARG_OF_PERICENTER = 115.4929
MEAN_ANOMALY   = 244.6511

EPHEMERIS_TYPE = 0
CLASSIFICATION_TYPE = U
NORAD_CAT_ID   = 67551
ELEMENT_SET_NO = 999
REV_AT_EPOCH   = 398
BSTAR          = -.39794302E-2
MEAN_MOTION_DOT = -.670041E-2
MEAN_MOTION_DDOT = 0

CCSDS_OMM_VERS = 2.0
CREATION_DATE  = 
ORIGINATOR     = 

OBJECT_NAME    = STARLINK-36567
OBJECT_ID      = 2026-014W
CENTER_NAME    = EARTH
REF_FRAME      = TEME
TIME_SYSTEM    = UTC
MEAN_ELEMENT_THEORY = SGP/SGP4

EPOCH          = 2026-02-08T14:00:01.999872
MEAN_MOTION    = 15.75184761
ECCENTRICITY   = .00014603
INCLINATION    = 97.2848
RA_OF_ASC_NODE = 283.0504
ARG_OF_PERICENTER = 97.7392
MEAN_ANOMALY   = 126.7922

EPHEMERIS_TYPE = 0
CLASSIFICATION_TYPE = U
NORAD_CAT_ID   = 67552
ELEMENT_SET_NO = 999
REV_AT_EPOCH   = 401
BSTAR          = -.1307344E-5
MEAN_MOTION_DOT = -.325E-5
MEAN_MOTION_DDOT = 0

CCSDS_OMM_VERS = 2.0
CREATION_DATE  = 
ORIGINATOR     = 

OBJECT_NAME    = STARLINK-36569
OBJECT_ID      = 2026-014X
CENTER_NAME    = EARTH
REF_FRAME      = TEME
TIME_SYSTEM    = UTC
MEAN_ELEMENT_THEORY = SGP/SGP4

EPOCH          = 2026-02-08T14:19:57.506304
MEAN_MOTION    = 15.80871222
ECCENTRICITY   = .00010573
INCLINATION    = 97.2753
RA_OF_ASC_NODE = 283.0868
ARG_OF_PERICENTER = 86.8836
MEAN_ANOMALY   = 273.2553

EPHEMERIS_TYPE = 0
CLASSIFICATION_TYPE = U
NORAD_CAT_ID   = 67553
ELEMENT_SET_NO = 999
REV_AT_EPOCH   = 398
BSTAR          = .80071961E-3
MEAN_MOTION_DOT = .156406E-2
MEAN_MOTION_DDOT = 0

